{
    "links": {
        "self": "http://www.neowsapp.com/rest/v1/neo/54051328?api_key=iIulBulltgU6a56xZRHN4H3l9WmuAYTsLGpBGhQ2"
    },
    "id": "54051328",
    "neo_reference_id": "54051328",
    "name": "(2020 QH4)",
    "designation": "2020 QH4",
    "nasa_jpl_url": "http://ssd.jpl.nasa.gov/sbdb.cgi?sstr=54051328",
    "absolute_magnitude_h": 19.674,
    "estimated_diameter": {
        "kilometers": {
            "estimated_diameter_min": 0.3088552419,
            "estimated_diameter_max": 0.6906213161
        },
        "meters": {
            "estimated_diameter_min": 308.8552419086,
            "estimated_diameter_max": 690.6213161148
        },
        "miles": {
            "estimated_diameter_min": 0.1919136905,
            "estimated_diameter_max": 0.4291320578
        },
        "feet": {
            "estimated_diameter_min": 1013.3046318634,
            "estimated_diameter_max": 2265.8180387619
        }
    },
    "is_potentially_hazardous_asteroid": true,
    "close_approach_data": [
        {
            "close_approach_date": "2020-08-20",
            "close_approach_date_full": "2020-Aug-20 22:33",
            "epoch_date_close_approach": 1597962780000,
            "relative_velocity": {
                "kilometers_per_second": "36.9961291147",
                "kilometers_per_hour": "133186.0648127584",
                "miles_per_hour": "82756.641216572"
            },
            "miss_distance": {
                "astronomical": "0.0731852012",
                "lunar": "28.4690432668",
                "kilometers": "10948350.215041444",
                "miles": "6802989.3648181672"
            },
            "orbiting_body": "Earth"
        }
    ],
    "orbital_data": {
        "orbit_id": "17",
        "orbit_determination_date": "2020-10-26 09:35:46",
        "first_observation_date": "2020-08-21",
        "last_observation_date": "2020-09-09",
        "data_arc_in_days": 19,
        "observations_used": 216,
        "orbit_uncertainty": "8",
        "minimum_orbit_intersection": ".0342717",
        "jupiter_tisserand_invariant": "1.962",
        "epoch_osculation": "2459086.5",
        "eccentricity": ".8602449587839387",
        "semi_major_axis": "3.48950264725596",
        "inclination": "55.66927085786013",
        "ascending_node_longitude": "329.9621436712416",
        "orbital_period": "2380.914089636634",
        "perihelion_distance": ".4876755862908117",
        "perihelion_argument": "266.3064262393405",
        "aphelion_distance": "6.491329708221108",
        "perihelion_time": "2459039.631987531191",
        "mean_anomaly": "7.08655745379971",
        "mean_motion": ".1512024316908225",
        "equinox": "J2000",
        "orbit_class": {
            "orbit_class_type": "APO",
            "orbit_class_description": "Near-Earth asteroid orbits which cross the Earth’s orbit similar to that of 1862 Apollo",
            "orbit_class_range": "a (semi-major axis) > 1.0 AU; q (perihelion) < 1.017 AU"
        }
    },
    "is_sentry_object": false
}